OBJECT_NAME,OBJECT_ID,EPOCH,MEAN_MOTION,ECCENTRICITY,INCLINATION,RA_OF_ASC_NODE,ARG_OF_PERICENTER,MEAN_ANOMALY,EPHEMERIS_TYPE,CLASSIFICATION_TYPE,NORAD_CAT_ID,ELEMENT_SET_NO,REV_AT_EPOCH,BSTAR,MEAN_MOTION_DOT,MEAN_MOTION_DDOT
WILDFIRE 1,2023-133H,2026-06-24T06:05:56.197824,13.85732526,.00062079,80.9998,0.1889,350.1292,9.9742,0,U,57764,999,14203,.74797366E-4,.97E-6,0
WILDFIRE 9,2023-133J,2026-06-24T05:02:07.034496,13.85386093,.00059856,81.0037,1.2204,3.5015,356.6182,0,U,57765,999,14199,.31274706E-4,.47E-6,0
WILDFIRE 10,2023-133K,2026-06-24T06:24:28.803456,13.85605802,.00062848,81.0027,0.6849,353.5878,6.5197,0,U,57766,999,14202,.47140675E-4,.65E-6,0
WILDFIRE 2,2023-133L,2026-06-24T06:32:39.751584,13.85420738,.00054399,80.9960,0.6253,11.8358,348.2925,0,U,57767,999,14198,.36943713E-4,.53E-6,0
WILDFIRE 8,2023-133M,2026-06-24T06:08:32.447040,13.85422481,.00058555,80.9951,0.1664,2.8322,357.2867,0,U,57768,999,14201,.47017312E-4,.65E-6,0
WILDFIRE 5,2023-133N,2026-06-24T00:07:04.683648,13.85462442,.00060907,81.0036,1.2638,0.2043,359.9114,0,U,57769,999,14197,.5819124E-4,.77E-6,0
STARLINK-30397,2023-134A,2026-06-23T17:48:49.053888,15.27582668,.00011556,43.0016,315.7808,266.0457,94.0263,0,U,57771,999,15572,-.405456E-4,-.1378E-4,0
STARLINK-30354,2023-134B,2026-06-24T02:17:32.203104,15.27591248,.00013185,43.0051,316.6757,272.8584,87.2117,0,U,57772,999,15574,-.1211989E-3,-.3597E-4,0
STARLINK-30383,2023-134C,2026-06-24T02:13:52.001472,15.27522780,.00006175,43.0039,316.6642,254.7101,105.3682,0,U,57773,999,15574,.53728501E-3,.14526E-3,0
STARLINK-30384,2023-134D,2026-06-24T02:19:23.377440,15.27576684,.00008057,43.0025,316.6942,252.0087,108.0677,0,U,57774,999,15574,.32001597E-4,.619E-5,0
STARLINK-30305,2023-134E,2026-06-24T01:45:08.393184,15.27629273,.0001911,43.0018,313.9609,265.4061,94.6572,0,U,57775,999,15577,-.23533023E-3,-.6742E-4,0
STARLINK-30360,2023-134F,2026-06-24T01:47:00.523968,15.27561137,.00009483,43.0016,313.9692,279.6563,80.4182,0,U,57776,999,15577,.17177698E-3,.4465E-4,0
STARLINK-30355,2023-134G,2026-06-23T19:11:09.488832,15.27583398,.00015715,43.0055,318.7295,259.1792,100.8883,0,U,57777,999,15568,-.3423082E-5,-.356E-5,0
STARLINK-30385,2023-134H,2026-06-23T19:56:07.804896,15.27575977,.00014721,43.0028,303.5735,262.3403,97.7282,0,U,57778,999,15571,.28900674E-4,.533E-5,0
STARLINK-30359,2023-134J,2026-06-24T00:58:57.611712,15.27572124,.00015427,43.0037,302.6128,288.1372,71.9311,0,U,57779,999,15590,.49832668E-4,.1109E-4,0
STARLINK-30380,2023-134K,2026-06-24T02:42:17.832960,15.27582910,.00014648,43.0056,313.3913,262.3922,97.6763,0,U,57780,999,15578,.33054945E-4,.648E-5,0
STARLINK-30369,2023-134L,2026-06-24T02:36:45.603360,15.27571556,.00009489,43.0025,313.3606,291.6217,68.4534,0,U,57781,999,15578,-.17896307E-4,-.754E-5,0
STARLINK-30376,2023-134M,2026-06-24T02:21:56.638080,15.27586702,.00015153,43.0052,313.2936,264.0774,95.9905,0,U,57782,999,15578,.6182125E-5,-.92E-6,0
STARLINK-30389,2023-134N,2026-06-24T02:11:58.986816,15.27579918,.00019588,43.0050,316.6498,287.2387,72.8250,0,U,57783,999,15574,.28037933E-4,.509E-5,0
STARLINK-30388,2023-134P,2026-06-24T02:27:29.909664,15.27570526,.0002346,43.0073,313.3211,265.6793,94.3790,0,U,57784,999,15578,.50156983E-4,.1117E-4,0
STARLINK-30381,2023-134Q,2026-06-23T20:36:45.358848,15.27575653,.0001667,43.0047,314.8378,264.9826,95.0835,0,U,57785,999,15574,.81294563E-4,.1975E-4,0
STARLINK-30382,2023-134R,2026-06-24T02:16:23.521152,15.27581096,.00015795,43.0040,313.2644,263.2629,96.8043,0,U,57786,999,15578,.22304715E-4,.352E-5,0
STARLINK-30378,2023-134S,2026-06-23T19:17:25.173312,15.27586275,.0001083,43.0019,315.3707,261.8240,98.2489,0,U,57787,999,15573,-.16028859E-4,-.703E-5,0
STARLINK-30387,2023-134T,2026-06-23T15:19:13.713024,15.27567650,.00016,43.0019,304.7492,266.7192,93.3476,0,U,57788,999,15584,.11507194E-3,.2904E-4,0
STARLINK-30372,2023-134U,2026-06-23T18:42:07.427232,15.27838287,.00015136,43.0014,199.2163,320.5333,39.5409,0,U,57789,999,15709,.13174193E-3,.3393E-4,0
STARLINK-30367,2023-134W,2026-06-23T18:57:04.121856,15.27580402,.00014536,43.0043,315.2711,268.8169,91.2516,0,U,57791,999,15573,.253634E-4,.436E-5,0
TIANQI-21,2023-135A,2026-06-24T05:20:21.715584,14.23123700,.00136934,49.9716,122.7162,282.7162,77.2219,0,U,57792,999,14563,.71557457E-4,.4E-7,0
TIANQI-22,2023-135B,2026-06-24T04:54:40.099392,14.23242575,.00131789,49.9676,122.9833,287.2793,72.6677,0,U,57793,999,14562,.11080832E-4,-.134E-5,0
TIANQI-23,2023-135C,2026-06-24T05:44:28.722912,14.23043713,.00138638,49.9722,122.8679,286.6683,73.2707,0,U,57794,999,14563,.18989457E-3,.272E-5,0
TIANQI-24,2023-135D,2026-06-24T06:10:14.361888,14.23144773,.0014195,49.9725,123.0347,287.1672,72.7686,0,U,57795,999,14563,.14236015E-3,.165E-5,0
