WILDFIRE 1              
1 57764U 23133H   26175.25412266  .00000097  00000+0  74797-4 0  9993
2 57764  80.9998   0.1889 0006207 350.1292   9.9742 13.85732526142030
WILDFIRE 9              
1 57765U 23133J   26175.20980364  .00000047  00000+0  31275-4 0  9997
2 57765  81.0037   1.2204 0005985   3.5015 356.6182 13.85386093141992
WILDFIRE 10             
1 57766U 23133K   26175.26700004  .00000065  00000+0  47141-4 0  9994
2 57766  81.0027   0.6849 0006284 353.5878   6.5197 13.85605802142022
WILDFIRE 2              
1 57767U 23133L   26175.27268231  .00000053  00000+0  36944-4 0  9993
2 57767  80.9960   0.6253 0005439  11.8358 348.2925 13.85420738141986
WILDFIRE 8              
1 57768U 23133M   26175.25593110  .00000065  00000+0  47017-4 0  9995
2 57768  80.9951   0.1664 0005855   2.8322 357.2867 13.85422481142018
WILDFIRE 5              
1 57769U 23133N   26175.00491532  .00000077  00000+0  58191-4 0  9992
2 57769  81.0036   1.2638 0006090   0.2043 359.9114 13.85462442141971
STARLINK-30397          
1 57771U 23134A   26174.74223442 -.00001378  00000+0 -40546-4 0  9991
2 57771  43.0016 315.7808 0001155 266.0457  94.0263 15.27582668155721
STARLINK-30354          
1 57772U 23134B   26175.09551161 -.00003597  00000+0 -12120-3 0  9994
2 57772  43.0051 316.6757 0001318 272.8584  87.2117 15.27591248155749
STARLINK-30383          
1 57773U 23134C   26175.09296298  .00014526  00000+0  53729-3 0  9994
2 57773  43.0039 316.6642 0000617 254.7101 105.3682 15.27522780155748
STARLINK-30384          
1 57774U 23134D   26175.09679835  .00000619  00000+0  32002-4 0  9997
2 57774  43.0025 316.6942 0000805 252.0087 108.0677 15.27576684155746
STARLINK-30305          
1 57775U 23134E   26175.07301381 -.00006742  00000+0 -23533-3 0  9997
2 57775  43.0018 313.9609 0001911 265.4061  94.6572 15.27629273155778
STARLINK-30360          
1 57776U 23134F   26175.07431162  .00004465  00000+0  17178-3 0  9995
2 57776  43.0016 313.9692 0000948 279.6563  80.4182 15.27561137155776
STARLINK-30355          
1 57777U 23134G   26174.79941538 -.00000356  00000+0 -34231-5 0  9995
2 57777  43.0055 318.7295 0001571 259.1792 100.8883 15.27583398155680
STARLINK-30385          
1 57778U 23134H   26174.83064589  .00000533  00000+0  28901-4 0  9994
2 57778  43.0028 303.5735 0001472 262.3403  97.7282 15.27575977155712
STARLINK-30359          
1 57779U 23134J   26175.04094458  .00001109  00000+0  49833-4 0  9994
2 57779  43.0037 302.6128 0001542 288.1372  71.9311 15.27572124155907
STARLINK-30380          
1 57780U 23134K   26175.11270640  .00000648  00000+0  33055-4 0  9999
2 57780  43.0056 313.3913 0001464 262.3922  97.6763 15.27582910155785
STARLINK-30369          
1 57781U 23134L   26175.10886115 -.00000754  00000+0 -17896-4 0  9994
2 57781  43.0025 313.3606 0000948 291.6217  68.4534 15.27571556155785
STARLINK-30376          
1 57782U 23134M   26175.09857220 -.00000092  00000+0  61821-5 0  9990
2 57782  43.0052 313.2936 0001515 264.0774  95.9905 15.27586702155780
STARLINK-30389          
1 57783U 23134N   26175.09165494  .00000509  00000+0  28038-4 0  9990
2 57783  43.0050 316.6498 0001958 287.2387  72.8250 15.27579918155741
STARLINK-30388          
1 57784U 23134P   26175.10242951  .00001117  00000+0  50157-4 0  9990
2 57784  43.0073 313.3211 0002346 265.6793  94.3790 15.27570526155785
STARLINK-30381          
1 57785U 23134Q   26174.85885832  .00001975  00000+0  81295-4 0  9992
2 57785  43.0047 314.8378 0001667 264.9826  95.0835 15.27575653155741
STARLINK-30382          
1 57786U 23134R   26175.09471668  .00000352  00000+0  22305-4 0  9993
2 57786  43.0040 313.2644 0001579 263.2629  96.8043 15.27581096155781
STARLINK-30378          
1 57787U 23134S   26174.80376358 -.00000703  00000+0 -16029-4 0  9990
2 57787  43.0019 315.3707 0001083 261.8240  98.2489 15.27586275155733
STARLINK-30387          
1 57788U 23134T   26174.63835316  .00002904  00000+0  11507-3 0  9994
2 57788  43.0019 304.7492 0001600 266.7192  93.3476 15.27567650155842
STARLINK-30372          
1 57789U 23134U   26174.77925263  .00003393  00000+0  13174-3 0  9996
2 57789  43.0014 199.2163 0001513 320.5333  39.5409 15.27838287157093
STARLINK-30367          
1 57791U 23134W   26174.78963104  .00000436  00000+0  25363-4 0  9995
2 57791  43.0043 315.2711 0001453 268.8169  91.2516 15.27580402155737
TIANQI-21               
1 57792U 23135A   26175.22247356  .00000004  00000+0  71557-4 0  9998
2 57792  49.9716 122.7162 0013693 282.7162  77.2219 14.23123700145639
TIANQI-22               
1 57793U 23135B   26175.20463078 -.00000134  00000+0  11081-4 0  9999
2 57793  49.9676 122.9833 0013178 287.2793  72.6677 14.23242575145628
TIANQI-23               
1 57794U 23135C   26175.23922133  .00000272  00000+0  18989-3 0  9990
2 57794  49.9722 122.8679 0013863 286.6683  73.2707 14.23043713145635
TIANQI-24               
1 57795U 23135D   26175.25711067  .00000165  00000+0  14236-3 0  9997
2 57795  49.9725 123.0347 0014195 287.1672  72.7686 14.23144773145635
